STARLINK-1008           
1 44714U 19074B   24331.95925387  .00009614  00000+0  66297-3 0  9994
2 44714  53.0511 126.3413 0001270 109.2614 250.8513 15.06427524278423
STARLINK-1009           
1 44715U 19074C   24332.00001157  .01204997  00000+0  19489-1 0  9993
2 44715  53.0547 123.2773 0001384  66.1783 252.7072 15.49608900  5797
STARLINK-1010           
1 44716U 19074D   24331.83391954  .00004724  00000+0  33568-3 0  9992
2 44716  53.0530 126.9014 0001493  81.9021 278.2137 15.06414252278211
STARLINK-1011           
1 44717U 19074E   24331.83208447  .00003453  00000+0  25058-3 0  9990
2 44717  53.0528 146.9104 0001102 103.1623 256.9489 15.06398545277952
STARLINK-1012           
1 44718U 19074F   24331.80443573  .00004415  00000+0  31497-3 0  9992
2 44718  53.0526 127.0363 0001329  96.9986 263.1154 15.06411670278393
STARLINK-1013           
1 44719U 19074G   24331.81179218 -.00006319  00000+0 -40541-3 0  9993
2 44719  53.0538 126.9984 0001381  93.7689 266.3457 15.06423515279356
STARLINK-1014           
1 44720U 19074H   24331.39655195  .00016702  00000+0  80738-3 0  9998
2 44720  53.0508 118.7417 0002349 177.5394 182.5612 15.18748223278310
STARLINK-1015           
1 44721U 19074J   24331.78604411  .00002213  00000+0  16730-3 0  9990
2 44721  53.0536 127.4666 0001556  85.0519 275.0648 15.06419797278210
STARLINK-1017           
1 44723U 19074L   24331.77126022  .00004831  00000+0  34297-3 0  9994
2 44723  53.0527 127.1884 0001350  93.7469 266.3674 15.06404370278227
STARLINK-1019           
1 44724U 19074M   24331.86709490  .00004792  00000+0  34020-3 0  9991
2 44724  53.0507 126.7555 0000889  82.0159 278.0931 15.06418214278238
STARLINK-1020           
1 44725U 19074N   24331.87262823  .00002563  00000+0  19089-3 0  9999
2 44725  53.0532 146.7259 0001268 102.6224 257.4907 15.06395832278126
STARLINK-1021           
1 44726U 19074P   24331.79705659  .00004666  00000+0  33183-3 0  9997
2 44726  53.0504 127.0650 0002406 111.2234 248.9012 15.06411295278220
STARLINK-1027           
1 44732U 19074V   24331.86156750  .00001063  00000+0  90206-4 0  9992
2 44732  53.0535 146.7889 0001494  91.4124 268.7037 15.06410987277959
STARLINK-1028           
1 44733U 19074W   24332.00001157  .01202081  00000+0  19362-1 0  9995
2 44733  53.0489 123.1980 0001255  70.8964  43.1875 15.49732333  5859
STARLINK-1029           
1 44734U 19074X   24330.61389303  .00003536  00000+0  25618-3 0  9999
2 44734  53.0559  52.3841 0001096  92.2408 267.8706 15.06398262279146
STARLINK-1030           
1 44735U 19074Y   24331.53720746  .00000380  00000+0  44417-4 0  9995
2 44735  53.0527 148.2373 0001327  85.3510 274.7631 15.06399695277908
STARLINK-1031           
1 44736U 19074Z   24331.81733778  .00002303  00000+0  17348-3 0  9995
2 44736  53.0537 146.9713 0001371 118.0603 242.0525 15.06395063277959
STARLINK-1032           
1 44737U 19074AA  24332.00001157  .01233969  00000+0  26023-1 0  9990
2 44737  53.0537 144.1691 0001190  66.7040  85.8026 15.42203368  5750
STARLINK-1035           
1 44740U 19074AD  24331.82471018  .00004611  00000+0  32815-3 0  9997
2 44740  53.0520 146.9503 0001365 106.0077 254.1062 15.06407411278129
STARLINK-1036           
1 44741U 19074AE  24331.90210615  .00008038  00000+0  55731-3 0  9990
2 44741  53.0512 146.5963 0001305 107.3590 252.7541 15.06439906278136
STARLINK-1038           
1 44743U 19074AG  24332.25001157  .01128946  00000+0  32794-1 0  9994
2 44743  53.0516 163.1701 0001001 100.7820 315.4354 15.32490414277939
STARLINK-1039           
1 44744U 19074AH  24331.89658673  .00003535  00000+0  25606-3 0  9996
2 44744  53.0531 166.6199 0001656  92.7039 267.4140 15.06406443277854
STARLINK-1042           
1 44747U 19074AL  24331.93450067  .00038014  00000+0  13913-2 0  9998
2 44747  53.0531 142.9703 0005599 146.2402 213.8954 15.27691664278206
STARLINK-1043           
1 44748U 19074AM  24331.87447247  .00004022  00000+0  28871-3 0  9990
2 44748  53.0518 166.7216 0001840 122.7596 237.3570 15.06403473277685
STARLINK-1046           
1 44751U 19074AQ  24331.88922501  .00001162  00000+0  96925-4 0  9994
2 44751  53.0529 166.6544 0001459  99.3781 260.7373 15.06396475277858
STARLINK-1047           
1 44752U 19074AR  24331.82248176  .00014013  00000+0  84511-3 0  9994
2 44752  53.0521 146.0399 0001700 205.0986 154.9923 15.11008848278130
STARLINK-1048           
1 44753U 19074AS  24331.84867895  .00004859  00000+0  34483-3 0  9992
2 44753  53.0531 126.8371 0001487  99.7505 260.3652 15.06401095278232
STARLINK-1052           
1 44757U 19074AW  24332.00001157  .00121331  00000+0  18096-2 0  9992
2 44757  53.0291  93.2235 0001041  60.0153 351.5243 15.54201789  5981
STARLINK-1053           
1 44758U 19074AX  24330.93326190  .00014227  00000+0  83074-3 0  9994
2 44758  53.0537 169.5470 0001570 100.2074 259.9095 15.12169526277735
STARLINK-1054           
1 44759U 19074AY  24331.91869971  .00005017  00000+0  35545-3 0  9990
2 44759  53.0515 166.5211 0001082  92.8984 267.2128 15.06403352277860
STARLINK-1055           
1 44760U 19074AZ  24332.25001157  .00254339  00000+0  15054-2 0  9999
2 44760  53.0014  63.3836 0001733  11.3772 131.6006 15.76823002279335
STARLINK-1056           
1 44761U 19074BA  24331.58326750 -.00007621  00000+0 -49361-3 0  9995
2 44761  53.0519 168.0332 0001035 234.0563 126.0330 15.06377387277640
STARLINK-1057           
1 44762U 19074BB  24331.85050874  .00004215  00000+0  30162-3 0  9990
2 44762  53.0531 146.8268 0001454  92.7030 267.4125 15.06408629278120
STARLINK-1058           
1 44763U 19074BC  24332.00001157  .01455324  00000+0  28095-1 0  9991
2 44763  53.0521 162.7497 0001401  59.4324 235.2011 15.44382776  5726
STARLINK-1059           
1 44764U 19074BD  24332.11506377  .00639079  19976-3  10813-2 0  9994
2 44764  53.0649  10.9605 0007204  30.5762 329.5687 16.02086604280093
STARLINK-1060           
1 44765U 19074BE  24331.86525090  .00001753  00000+0  13651-3 0  9999
2 44765  53.0534 146.7615 0001070 106.3414 253.7693 15.06401951278122
STARLINK-1061           
1 44766U 19074BF  24332.00001157  .00834773  00000+0  11985-1 0  9992
2 44766  53.0508 157.6337 0001053  74.0510 351.2171 15.53077120  5868
STARLINK-1062           
1 44767U 19074BG  24332.00001157  .01280299  00000+0  19279-1 0  9996
2 44767  53.0497 163.3630 0001212  88.4832 317.6070 15.51462971  5852
STARLINK-1063           
1 44768U 19074BH  24331.54642596  .00003038  00000+0  22278-3 0  9991
2 44768  53.0522 168.1901 0001412 120.3386 239.7743 15.06395449277642
STARLINK-1067           
1 44771U 19074BL  24331.93345461  .00004659  00000+0  33138-3 0  9996
2 44771  53.0512 166.4565 0001686 108.8573 251.2599 15.06409128277866
STARLINK-1068           
1 44772U 19074BM  24331.85787748  .00001874  00000+0  14467-3 0  9996
2 44772  53.0544 146.7939 0001228  93.4706 266.6424 15.06393473278129
STARLINK-1073           
1 44914U 20001A   24332.00001157 -.00006532  00000+0 -12783-3 0  9994
2 44914  53.0531 283.3932 0001497  89.4222 207.3960 15.44940852  5755
STARLINK-1084           
1 44915U 20001B   24332.00001157  .00639308  00000+0  19550-1 0  9993
2 44915  53.0492 284.7443 0001369 113.0089  55.5112 15.31040865  5750
STARLINK-1098           
1 44917U 20001D   24331.90765489 -.00000103  00000+0  11958-4 0  9991
2 44917  53.0545 286.5699 0001544 112.2967 247.8186 15.06390807269345
STARLINK-1102           
1 44920U 20001G   24332.00001157  .00166385  00000+0  23945-2 0  9993
2 44920  53.0447 184.3864 0010717 132.8158 175.6893 15.54938319  5981
STARLINK-1103           
1 44921U 20001H   24332.00001157 -.00024708  00000+0 -65717-3 0  9992
2 44921  53.0555 284.1859 0001326  95.3626  81.5184 15.37333981  5808
STARLINK-1104           
1 44922U 20001J   24331.25893110  .00006924  00000+0  48319-3 0  9994
2 44922  53.0544 289.4799 0001640  92.8964 267.2213 15.06405473269242
STARLINK-1106           
1 44923U 20001K   24331.38305850  .00090086  00000+0  15230-2 0  9995
2 44923  53.0105 207.4336 0005438  83.2540 276.9087 15.50851753270407
STARLINK-1112           
1 44925U 20001M   24331.08937587 -.00006207  00000+0 -39810-3 0  9997
2 44925  53.0544 290.2474 0001095  88.1593 271.9521 15.06409297269214
STARLINK-1114           
1 44927U 20001P   24331.29947979  .00017123  00000+0  11654-2 0  9990
2 44927  53.0547 289.3006 0001773 102.2119 257.9068 15.06406877269259
STARLINK-1123           
1 44930U 20001S   24331.91134180  .00003432  00000+0  24925-3 0  9999
2 44930  53.0559 286.5612 0001529  96.1270 263.9894 15.06389355269341
STARLINK-1130 (DARKSAT) 
1 44932U 20001U   24332.00001157 -.00065317  00000+0 -14576-2 0  9991
2 44932  53.0550 283.6576 0000989  86.7947 296.3569 15.43094410  5855
STARLINK-1144           
1 44933U 20001V   24331.10281770  .00060362  00000+0  32912-2 0  9990
2 44933  53.0542 288.5070 0006892  80.5131 279.6640 15.13810291270539
STARLINK-1071           
1 44934U 20001W   24331.40820649  .00023013  00000+0  15586-2 0  9998
2 44934  53.0541 268.8131 0001223  88.0143 272.0986 15.06405315269545
STARLINK-1079           
1 44937U 20001Z   24331.17333921  .00093441  00000+0  29213-2 0  9991
2 44937  53.0492 245.9521 0006063  83.9329 276.2362 15.32378758269856
STARLINK-1091           
1 44940U 20001AC  24331.23865502  .00005927  00000+0  41625-3 0  9991
2 44940  53.0531 269.5757 0001561 100.0971 260.0194 15.06418573269517
STARLINK-1094           
1 44941U 20001AD  24331.85789870  .00008122  00000+0  56363-3 0  9998
2 44941  53.0535 266.7927 0001669 111.6716 248.4450 15.06391367269611
STARLINK-1096           
1 44942U 20001AE  24331.86686073  .00041247  00000+0  87719-3 0  9995
2 44942  53.0061 160.6025 0003804  83.5719 276.5719 15.44592182271107
STARLINK-1109           
1 44945U 20001AH  24331.83798380  .00002672  00000+0  53915-4 0  9991
2 44945  53.0559 262.7154 0001622  71.9888 288.1297 15.50485625269661
